EARTHCARE               
1 59908U 24101A   24174.30920324  .00012782  00000+0  19771-3 0  9997
2 59908  96.9812 301.9606 0005263  92.2036 267.9821 15.54182797  3783
